SEEDS II (CO-66)        
1 32791U 08021J   26068.92109284  .00023758  00000+0  84213-3 0  9995
2 32791  97.7519  62.3611 0001448 359.2618   0.8619 15.29097235972108
STARLINK-32640          
1 62198U 24229G   26068.55914773  .00025875  00000+0  94615-3 0  9992
2 62198  42.9959 271.2603 0000876 169.5848 190.5022 15.27592769 70547
